{
  "type": "FeatureCollection",
  "features": [
    {
      "type": "Feature",
      "properties": {
        "norad_id": 40894,
        "name": "GAOFEN-9 01",
        "group": "resource",
        "lat": 62.073028231525456,
        "lon": 2.8611675514510466,
        "alt_km": 595.5384417479545,
        "timestamp": "2025-12-04T05:42:43.035149+00:00",
        "meta_object_name": "GAOFEN-9 01",
        "meta_object_id": "2015-047A",
        "meta_epoch": "2025-12-04T00:34:11.453952",
        "meta_mean_motion": 14.82388441,
        "meta_eccentricity": 0.00289046,
        "meta_inclination": 97.6555,
        "meta_ra_of_asc_node": 17.3555,
        "meta_arg_of_pericenter": 61.7366,
        "meta_mean_anomaly": 298.676,
        "meta_ephemeris_type": 0,
        "meta_classification_type": "U",
        "meta_norad_cat_id": 40894,
        "meta_element_set_no": 999,
        "meta_rev_at_epoch": 55127,
        "meta_bstar": 0.00028319899,
        "meta_mean_motion_dot": 2.233e-05,
        "meta_mean_motion_ddot": 0,
        "tle_line1": "1 40894U 15047A   25338.02374368  .00002233  00000+0  28320-3 0  9993",
        "tle_line2": "2 40894  97.6555  17.3555 0028904  61.7366 298.6760 14.82388441551273"
      },
      "geometry": {
        "type": "Point",
        "coordinates": [
          2.8611675514510466,
          62.073028231525456
        ]
      }
    },
    {
      "type": "Feature",
      "properties": {
        "norad_id": 41026,
        "name": "YAOGAN-28",
        "group": "resource",
        "lat": 15.809105523344561,
        "lon": 114.1976302576694,
        "alt_km": 500.3669977751142,
        "timestamp": "2025-12-04T05:42:43.035159+00:00",
        "meta_object_name": "YAOGAN-28",
        "meta_object_id": "2015-064A",
        "meta_epoch": "2025-12-03T23:20:21.440832",
        "meta_mean_motion": 15.24113148,
        "meta_eccentricity": 0.0011985,
        "meta_inclination": 97.2799,
        "meta_ra_of_asc_node": 116.0141,
        "meta_arg_of_pericenter": 155.0011,
        "meta_mean_anomaly": 205.181,
        "meta_ephemeris_type": 0,
        "meta_classification_type": "U",
        "meta_norad_cat_id": 41026,
        "meta_element_set_no": 999,
        "meta_rev_at_epoch": 56091,
        "meta_bstar": 0.00065869028,
        "meta_mean_motion_dot": 0.0001599,
        "meta_mean_motion_ddot": 0,
        "tle_line1": "1 41026U 15064A   25337.97247038  .00015990  00000+0  65869-3 0  9999",
        "tle_line2": "2 41026  97.2799 116.0141 0011985 155.0011 205.1810 15.24113148560917"
      },
      "geometry": {
        "type": "Point",
        "coordinates": [
          114.1976302576694,
          15.809105523344561
        ]
      }
    },
    {
      "type": "Feature",
      "properties": {
        "norad_id": 41038,
        "name": "YAOGAN-29",
        "group": "resource",
        "lat": -62.64168803571804,
        "lon": 17.200100066997972,
        "alt_km": 627.2884845256003,
        "timestamp": "2025-12-04T05:42:43.035169+00:00",
        "meta_object_name": "YAOGAN-29",
        "meta_object_id": "2015-069A",
        "meta_epoch": "2025-12-03T23:31:16.097088",
        "meta_mean_motion": 14.82866814,
        "meta_eccentricity": 7.208e-05,
        "meta_inclination": 98.0228,
        "meta_ra_of_asc_node": 1.1233,
        "meta_arg_of_pericenter": 4.8914,
        "meta_mean_anomaly": 355.2306,
        "meta_ephemeris_type": 0,
        "meta_classification_type": "U",
        "meta_norad_cat_id": 41038,
        "meta_element_set_no": 999,
        "meta_rev_at_epoch": 54169,
        "meta_bstar": 0.00010813084,
        "meta_mean_motion_dot": 8.22e-06,
        "meta_mean_motion_ddot": 0,
        "tle_line1": "1 41038U 15069A   25337.98004742  .00000822  00000+0  10813-3 0  9998",
        "tle_line2": "2 41038  98.0228   1.1233 0000720   4.8914 355.2306 14.82866814541699"
      },
      "geometry": {
        "type": "Point",
        "coordinates": [
          17.200100066997972,
          -62.64168803571804
        ]
      }
    },
    {
      "type": "Feature",
      "properties": {
        "norad_id": 41167,
        "name": "KENT RIDGE 1",
        "group": "resource",
        "lat": -14.316348193467176,
        "lon": -158.39652901394888,
        "alt_km": 499.4408651073745,
        "timestamp": "2025-12-04T05:42:43.035179+00:00",
        "meta_object_name": "KENT RIDGE 1",
        "meta_object_id": "2015-077B",
        "meta_epoch": "2025-12-03T04:51:29.321280",
        "meta_mean_motion": 15.21515134,
        "meta_eccentricity": 0.00086777,
        "meta_inclination": 14.9806,
        "meta_ra_of_asc_node": 281.9029,
        "meta_arg_of_pericenter": 355.7263,
        "meta_mean_anomaly": 4.2984,
        "meta_ephemeris_type": 0,
        "meta_classification_type": "U",
        "meta_norad_cat_id": 41167,
        "meta_element_set_no": 999,
        "meta_rev_at_epoch": 55118,
        "meta_bstar": 0.0002495538,
        "meta_mean_motion_dot": 6.551e-05,
        "meta_mean_motion_ddot": 0,
        "tle_line1": "1 41167U 15077B   25337.20242270  .00006551  00000+0  24955-3 0  9992",
        "tle_line2": "2 41167  14.9806 281.9029 0008677 355.7263   4.2984 15.21515134551184"
      },
      "geometry": {
        "type": "Point",
        "coordinates": [
          -158.39652901394888,
          -14.316348193467176
        ]
      }
    },
    {
      "type": "Feature",
      "properties": {
        "norad_id": 41194,
        "name": "GAOFEN-4",
        "group": "resource",
        "lat": -0.034288790065645516,
        "lon": -95.29665933741956,
        "alt_km": 35782.70980882877,
        "timestamp": "2025-12-04T05:42:43.035192+00:00",
        "meta_object_name": "GAOFEN-4",
        "meta_object_id": "2015-083A",
        "meta_epoch": "2025-12-03T20:03:59.764032",
        "meta_mean_motion": 1.00273387,
        "meta_eccentricity": 0.00037375,
        "meta_inclination": 0.146,
        "meta_ra_of_asc_node": 80.7672,
        "meta_arg_of_pericenter": 104.6053,
        "meta_mean_anomaly": 294.2325,
        "meta_ephemeris_type": 0,
        "meta_classification_type": "U",
        "meta_norad_cat_id": 41194,
        "meta_element_set_no": 999,
        "meta_rev_at_epoch": 3657,
        "meta_bstar": 0,
        "meta_mean_motion_dot": -3.18e-06,
        "meta_mean_motion_ddot": 0,
        "tle_line1": "1 41194U 15083A   25337.83610838 -.00000318  00000+0  00000+0 0  9994",
        "tle_line2": "2 41194   0.1460  80.7672 0003737 104.6053 294.2325  1.00273387 36570"
      },
      "geometry": {
        "type": "Point",
        "coordinates": [
          -95.29665933741956,
          -0.034288790065645516
        ]
      }
    },
    {
      "type": "Feature",
      "properties": {
        "norad_id": 41240,
        "name": "JASON-3",
        "group": "resource",
        "lat": 30.7843554209369,
        "lon": -19.662451248446168,
        "alt_km": 1311.3862297962241,
        "timestamp": "2025-12-04T05:42:43.035203+00:00",
        "meta_object_name": "JASON-3",
        "meta_object_id": "2016-002A",
        "meta_epoch": "2025-12-03T19:38:09.860352",
        "meta_mean_motion": 12.87625977,
        "meta_eccentricity": 0.00071402,
        "meta_inclination": 66.0392,
        "meta_ra_of_asc_node": 176.5813,
        "meta_arg_of_pericenter": 270.2896,
        "meta_mean_anomaly": 89.7304,
        "meta_ephemeris_type": 0,
        "meta_classification_type": "U",
        "meta_norad_cat_id": 41240,
        "meta_element_set_no": 999,
        "meta_rev_at_epoch": 46209,
        "meta_bstar": 0.00012755963,
        "meta_mean_motion_dot": -3e-07,
        "meta_mean_motion_ddot": 0,
        "tle_line1": "1 41240U 16002A   25337.81816968 -.00000030  00000+0  12756-3 0  9994",
        "tle_line2": "2 41240  66.0392 176.5813 0007140 270.2896  89.7304 12.87625977462092"
      },
      "geometry": {
        "type": "Point",
        "coordinates": [
          -19.662451248446168,
          30.7843554209369
        ]
      }
    },
    {
      "type": "Feature",
      "properties": {
        "norad_id": 41335,
        "name": "SENTINEL-3A",
        "group": "resource",
        "lat": -81.33880785377,
        "lon": 128.2667591976656,
        "alt_km": 810.6834297431178,
        "timestamp": "2025-12-04T05:42:43.035213+00:00",
        "meta_object_name": "SENTINEL-3A",
        "meta_object_id": "2016-011A",
        "meta_epoch": "2025-12-03T23:23:50.249760",
        "meta_mean_motion": 14.26741388,
        "meta_eccentricity": 9.847e-05,
        "meta_inclination": 98.6219,
        "meta_ra_of_asc_node": 43.1133,
        "meta_arg_of_pericenter": 91.1644,
        "meta_mean_anomaly": 268.9649,
        "meta_ephemeris_type": 0,
        "meta_classification_type": "U",
        "meta_norad_cat_id": 41335,
        "meta_element_set_no": 999,
        "meta_rev_at_epoch": 51022,
        "meta_bstar": 0.00014380507,
        "meta_mean_motion_dot": 3.04e-06,
        "meta_mean_motion_ddot": 0,
        "tle_line1": "1 41335U 16011A   25337.97488715  .00000304  00000+0  14381-3 0  9990",
        "tle_line2": "2 41335  98.6219  43.1133 0000984  91.1644 268.9649 14.26741388510222"
      },
      "geometry": {
        "type": "Point",
        "coordinates": [
          128.2667591976656,
          -81.33880785377
        ]
      }
    }
  ]
}